     2              NAVIGATION DATA                         RINEX VERSION / TYPE
CCRINEXN V1.6.0 UX  CDDIS               28-SEP-15 17:31     PGM / RUN BY / DATE 
IGS BROADCAST EPHEMERIS FILE                                COMMENT             
    0.1676D-07  0.1490D-07 -0.1192D-06 -0.1192D-06          ION ALPHA           
    0.1147D+06  0.3277D+05 -0.2621D+06  0.6554D+05          ION BETA            
   -0.931322574615D-09-0.888178419700D-15   147456     1864 DELTA-UTC: A0,A1,T,W
    17                                                      LEAP SECONDS        
                                                            END OF HEADER       
17 15  9 27 16  0  0.0-0.189136713743D-03-0.136424205266D-11 0.000000000000D+00
    0.140000000000D+02 0.675000000000D+02 0.477627037940D-08-0.246188143127D+01
    0.350363552570D-05 0.104131384287D-01 0.386498868465D-05 0.515356926537D+04
    0.576000000000D+05 0.214204192162D-06 0.109323865430D+01 0.465661287308D-07
    0.973443114762D+00 0.309750000000D+03-0.200686759116D+01-0.828034490960D-08
    0.524664711534D-09 0.100000000000D+01 0.186400000000D+04 0.000000000000D+00
    0.200000000000D+01 0.000000000000D+00-0.107102096081D-07 0.140000000000D+02
    0.504180000000D+05 0.400000000000D+01 0.000000000000D+00 0.000000000000D+00
18 15  9 27 16  0  0.0 0.437678303570D-03 0.329691829393D-11 0.000000000000D+00
    0.950000000000D+02 0.286250000000D+02 0.509235498214D-08-0.911630542488D+00
    0.145658850670D-05 0.163613442564D-01 0.146906822920D-04 0.515364586449D+04
    0.576000000000D+05-0.102445483208D-06 0.311874757857D+01 0.348314642906D-06
    0.925569411738D+00 0.807500000000D+02-0.193624434314D+01-0.853464143802D-08
   -0.435732422366D-10 0.100000000000D+01 0.186400000000D+04 0.000000000000D+00
    0.280000000000D+01 0.000000000000D+00-0.111758708954D-07 0.950000000000D+02
    0.504000000000D+05 0.000000000000D+00 0.000000000000D+00 0.000000000000D+00
19 15  9 27 16  0  0.0-0.520724337548D-03-0.568434188608D-12 0.000000000000D+00
    0.490000000000D+02 0.665937500000D+02 0.490449000598D-08 0.240764389855D+01
    0.336579978466D-05 0.113550896058D-01 0.402890145779D-05 0.515513467407D+04
    0.576000000000D+05-0.201165676117D-06 0.114250732579D+01-0.163912773132D-06
    0.970481953520D+00 0.307718750000D+03 0.652230822615D+00-0.828963101069D-08
    0.463233581252D-09 0.000000000000D+00 0.186400000000D+04 0.000000000000D+00
    0.200000000000D+01 0.000000000000D+00-0.149011611938D-07 0.490000000000D+02
    0.531000000000D+05 0.400000000000D+01 0.000000000000D+00 0.000000000000D+00
20 15  9 27 16  0  0.0 0.358661171049D-03 0.306954461848D-11 0.000000000000D+00
    0.540000000000D+02 0.139687500000D+02 0.491770490996D-08-0.311978280085D+01
    0.659376382828D-06 0.490727135912D-02 0.148881226778D-04 0.515366052437D+04
    0.576000000000D+05 0.670552253723D-07 0.306661721257D+01-0.279396772385D-07
    0.926783832701D+00 0.722500000000D+02 0.123168255042D+01-0.815533951481D-08
   -0.582167092311D-10 0.100000000000D+01 0.186400000000D+04 0.000000000000D+00
    0.200000000000D+01 0.000000000000D+00-0.838190317154D-08 0.540000000000D+02
    0.504000000000D+05 0.000000000000D+00 0.000000000000D+00 0.000000000000D+00
21 15  9 27 16  0  0.0-0.482759904116D-03-0.272848410532D-11 0.000000000000D+00
    0.870000000000D+02-0.918437500000D+02 0.569809449136D-08 0.527781095515D-01
   -0.466406345367D-05 0.225879144855D-01 0.640563666821D-05 0.515374898720D+04
    0.576000000000D+05-0.247731804848D-06 0.207614470001D+01 0.182539224625D-06
    0.934529145679D+00 0.244531250000D+03-0.187604214962D+01-0.924967100021D-08
   -0.667527805213D-09 0.000000000000D+00 0.186400000000D+04 0.000000000000D+00
    0.280000000000D+01 0.000000000000D+00-0.116415321827D-07 0.870000000000D+02
    0.504000000000D+05 0.400000000000D+01 0.000000000000D+00 0.000000000000D+00
22 15  9 27 16  0  0.0 0.395446084440D-03 0.363797880709D-11 0.000000000000D+00
    0.160000000000D+02 0.215625000000D+02 0.501056585304D-08-0.139563686759D+01
    0.981613993645D-06 0.801069126464D-02 0.152140855789D-04 0.515369091034D+04
    0.576000000000D+05 0.206753611565D-06 0.311969055216D+01 0.152736902237D-06
    0.923397968786D+00 0.656875000000D+02-0.204250162331D+01-0.821212778237D-08
   -0.521450291926D-10 0.000000000000D+00 0.186400000000D+04 0.000000000000D+00
    0.200000000000D+01 0.000000000000D+00-0.176951289177D-07 0.160000000000D+02
    0.516600000000D+05 0.400000000000D+01 0.000000000000D+00 0.000000000000D+00
23 15  9 27 16  0  0.0-0.135639216751D-03-0.216004991671D-11 0.000000000000D+00
    0.470000000000D+02 0.819375000000D+02 0.517950146131D-08 0.265829183682D+01
    0.404193997383D-05 0.104009909555D-01 0.449642539024D-05 0.515379044151D+04
    0.576000000000D+05-0.137835741043D-06-0.209082679748D+01-0.115483999252D-06
    0.947382424383D+00 0.285500000000D+03-0.262818856105D+01-0.848856786864D-08
    0.401088135502D-09 0.000000000000D+00 0.186400000000D+04 0.000000000000D+00
    0.200000000000D+01 0.000000000000D+00-0.200234353542D-07 0.470000000000D+02
    0.504000000000D+05 0.400000000000D+01 0.000000000000D+00 0.000000000000D+00
24 15  9 27 16  0  0.0-0.541144981980D-05-0.682121026330D-12 0.000000000000D+00
    0.740000000000D+02-0.930937500000D+02 0.494949188049D-08 0.197203307740D+01
   -0.489689409733D-05 0.345495017245D-02 0.623427331448D-05 0.515365262222D+04
    0.576000000000D+05-0.521540641785D-07-0.106362280967D+01 0.100582838059D-06
    0.951937983467D+00 0.252687500000D+03 0.299704483712D+00-0.849535386559D-08
   -0.552165857067D-09 0.100000000000D+01 0.186400000000D+04 0.000000000000D+00
    0.280000000000D+01 0.000000000000D+00 0.232830643654D-08 0.740000000000D+02
    0.504180000000D+05 0.400000000000D+01 0.000000000000D+00 0.000000000000D+00
25 15  9 27 16  0  0.0-0.445325858891D-04-0.522959453519D-11 0.000000000000D+00
    0.950000000000D+02 0.310937500000D+02 0.379480091794D-08-0.111309662323D+00
    0.163353979588D-05 0.464125047438D-02 0.151470303535D-04 0.515363276291D+04
    0.576000000000D+05 0.689178705216D-07 0.200027861106D-02 0.819563865662D-07
    0.978864140569D+00 0.101687500000D+03 0.742405512878D+00-0.772925012882D-08
    0.241438619097D-09 0.100000000000D+01 0.186400000000D+04 0.000000000000D+00
    0.200000000000D+01 0.000000000000D+00 0.512227416039D-08 0.950000000000D+02
    0.504000000000D+05 0.000000000000D+00 0.000000000000D+00 0.000000000000D+00
26 15  9 27 16  0  0.0-0.656200572848D-04-0.119371179608D-10 0.000000000000D+00
    0.720000000000D+02 0.139062500000D+02 0.409802784217D-08-0.106291546976D+01
    0.700354576111D-06 0.169833423570D-03 0.152606517077D-04 0.515365043640D+04
    0.576000000000D+05 0.000000000000D+00-0.272576601910D-02-0.260770320892D-07
    0.960929105777D+00 0.816875000000D+02 0.390224068616D+00-0.783425489959D-08
    0.209294432239D-09 0.000000000000D+00 0.186400000000D+04 0.000000000000D+00
    0.200000000000D+01 0.000000000000D+00 0.745058059692D-08 0.720000000000D+02
    0.504000000000D+05 0.400000000000D+01 0.000000000000D+00 0.000000000000D+00
27 15  9 27 16  0  0.0 0.230190344155D-04 0.295585778076D-11 0.000000000000D+00
    0.101000000000D+03 0.798437500000D+02 0.491163316067D-08-0.251140811615D+01
    0.403076410294D-05 0.266414065845D-02 0.483356416225D-05 0.515369461441D+04
    0.576000000000D+05-0.558793544769D-07 0.104472322325D+01-0.130385160446D-06
    0.968393665757D+00 0.292125000000D+03 0.320223834974D+00-0.844106588999D-08
    0.552165857067D-09 0.000000000000D+00 0.186400000000D+04 0.000000000000D+00
    0.200000000000D+01 0.000000000000D+00 0.139698386192D-08 0.101000000000D+03
    0.504000000000D+05 0.400000000000D+01 0.000000000000D+00 0.000000000000D+00
28 15  9 27 16  0  0.0 0.470490660518D-03 0.261479726760D-11 0.000000000000D+00
    0.970000000000D+02 0.377812500000D+02 0.349978863739D-08-0.164830014083D+01
    0.228919088840D-05 0.197024409426D-01 0.134687870741D-04 0.515370681953D+04
    0.576000000000D+05 0.201165676117D-06 0.739425418551D-01 0.439584255218D-06
    0.989623901579D+00 0.132843750000D+03-0.165722664751D+01-0.743852413010D-08
    0.283226083218D-09 0.100000000000D+01 0.186400000000D+04 0.000000000000D+00
    0.200000000000D+01 0.000000000000D+00-0.111758708954D-07 0.970000000000D+02
    0.504180000000D+05 0.400000000000D+01 0.000000000000D+00 0.000000000000D+00
30 15  9 27 16  0  0.0 0.317264348268D-04 0.636646291241D-11 0.000000000000D+00
    0.105000000000D+03-0.967500000000D+02 0.472698261208D-08 0.943575055734D+00
   -0.497698783875D-05 0.171117624268D-02 0.710412859917D-05 0.515369181824D+04
    0.576000000000D+05-0.223517417908D-07-0.973027985424D+00 0.521540641785D-07
    0.954619803427D+00 0.238968750000D+03 0.313791643555D+01-0.834856203683D-08
   -0.498592196938D-09 0.100000000000D+01 0.186400000000D+04 0.000000000000D+00
    0.200000000000D+01 0.000000000000D+00 0.325962901115D-08 0.105000000000D+03
    0.504180000000D+05 0.400000000000D+01 0.000000000000D+00 0.000000000000D+00
31 15  9 27 16  0  0.0 0.301317311823D-03-0.136424205266D-11 0.000000000000D+00
    0.620000000000D+02-0.103281250000D+03 0.438196824085D-08 0.100445070651D+01
   -0.533461570740D-05 0.813437427860D-02 0.686571002007D-05 0.515359673500D+04
    0.576000000000D+05 0.251457095146D-06-0.101234405510D+01 0.000000000000D+00
    0.973686339521D+00 0.251093750000D+03-0.519943040846D+00-0.823284293095D-08
   -0.583238579942D-09 0.000000000000D+00 0.186400000000D+04 0.000000000000D+00
    0.200000000000D+01 0.000000000000D+00-0.135041773319D-07 0.620000000000D+02
    0.504000000000D+05 0.400000000000D+01 0.000000000000D+00 0.000000000000D+00
